{"type": "FeatureCollection", "features": [ {"type": "Feature", "properties": {"norad_id": 35432, "name": "COSMOS 2251 DEB", "group": "cosmos-2251-debris", "lat": 18.12848001425654, "lon": 160.90259324236737, "alt_km": 499.57594659571987, "timestamp": "2025-12-26T14:28:48.099134+00:00", "meta": {"OBJECT_NAME": "COSMOS 2251 DEB", "OBJECT_ID": "1993-036AKA", "EPOCH": "2025-12-24T06:39:14.313600", "MEAN_MOTION": 15.2444661, "ECCENTRICITY": 0.00124517, "INCLINATION": 74.022, "RA_OF_ASC_NODE": 351.1973, "ARG_OF_PERICENTER": 322.1047, "MEAN_ANOMALY": 37.9275, "EPHEMERIS_TYPE": 0, "CLASSIFICATION_TYPE": "U", "NORAD_CAT_ID": 35432, "ELEMENT_SET_NO": 999, "REV_AT_EPOCH": 87679, "BSTAR": 0.0021028798, "MEAN_MOTION_DOT": 0.0005207, "MEAN_MOTION_DDOT": 0}, "tle": {"line1": "1 35432U 93036AKA 25358.27724900  .00052070  00000+0  21029-2 0  9991", "line2": "2 35432  74.0220 351.1973 0012451 322.1047  37.9275 15.24446610876798"}}, "geometry": {"type": "Point", "coordinates": [160.90259324236737, 18.12848001425654]}}, {"type": "Feature", "properties": {"norad_id": 35433, "name": "COSMOS 2251 DEB", "group": "cosmos-2251-debris", "lat": -30.38196564070718, "lon": 142.71671504104583, "alt_km": 797.5832112187936, "timestamp": "2025-12-26T14:28:48.099144+00:00", "meta": {"OBJECT_NAME": "COSMOS 2251 DEB", "OBJECT_ID": "1993-036AKB", "EPOCH": "2025-12-10T18:27:52.031808", "MEAN_MOTION": 14.34742553, "ECCENTRICITY": 0.00254013, "INCLINATION": 74.0339, "RA_OF_ASC_NODE": 342.0559, "ARG_OF_PERICENTER": 37.4572, "MEAN_ANOMALY": 142.4072, "EPHEMERIS_TYPE": 0, "CLASSIFICATION_TYPE": "U", "NORAD_CAT_ID": 35433, "ELEMENT_SET_NO": 999, "REV_AT_EPOCH": 86552, "BSTAR": 0.00041847558, "MEAN_MOTION_DOT": 1.164e-05, "MEAN_MOTION_DDOT": 0}, "tle": {"line1": "1 35433U 93036AKB 25344.76935222  .00001164  00000+0  41848-3 0  9992", "line2": "2 35433  74.0339 342.0559 0025401  37.4572 142.4072 14.34742553865528"}}, "geometry": {"type": "Point", "coordinates": [142.71671504104583, -30.38196564070718]}}, {"type": "Feature", "properties": {"norad_id": 35434, "name": "COSMOS 2251 DEB", "group": "cosmos-2251-debris", "lat": 34.14064050777003, "lon": -160.20622545080346, "alt_km": 850.9187676272713, "timestamp": "2025-12-26T14:28:48.099154+00:00", "meta": {"OBJECT_NAME": "COSMOS 2251 DEB", "OBJECT_ID": "1993-036AKC", "EPOCH": "2025-12-23T05:28:40.876896", "MEAN_MOTION": 14.25716012, "ECCENTRICITY": 0.00872798, "INCLINATION": 74.0389, "RA_OF_ASC_NODE": 194.6941, "ARG_OF_PERICENTER": 263.2384, "MEAN_ANOMALY": 95.8825, "EPHEMERIS_TYPE": 0, "CLASSIFICATION_TYPE": "U", "NORAD_CAT_ID": 35434, "ELEMENT_SET_NO": 999, "REV_AT_EPOCH": 86267, "BSTAR": 0.00051853095, "MEAN_MOTION_DOT": 1.255e-05, "MEAN_MOTION_DDOT": 0}, "tle": {"line1": "1 35434U 93036AKC 25357.22825089  .00001255  00000+0  51853-3 0  9995", "line2": "2 35434  74.0389 194.6941 0087279 263.2384  95.8825 14.25716012862672"}}, "geometry": {"type": "Point", "coordinates": [-160.20622545080346, 34.14064050777003]}}, {"type": "Feature", "properties": {"norad_id": 35435, "name": "COSMOS 2251 DEB", "group": "cosmos-2251-debris", "lat": -10.573864891669043, "lon": 73.70770145490135, "alt_km": 641.4503547258255, "timestamp": "2025-12-26T14:28:48.099164+00:00", "meta": {"OBJECT_NAME": "COSMOS 2251 DEB", "OBJECT_ID": "1993-036AKD", "EPOCH": "2025-12-24T14:06:56.153952", "MEAN_MOTION": 14.7881181, "ECCENTRICITY": 0.0006651, "INCLINATION": 74.0105, "RA_OF_ASC_NODE": 80.7425, "ARG_OF_PERICENTER": 178.2322, "MEAN_ANOMALY": 246.8342, "EPHEMERIS_TYPE": 0, "CLASSIFICATION_TYPE": "U", "NORAD_CAT_ID": 35435, "ELEMENT_SET_NO": 999, "REV_AT_EPOCH": 87714, "BSTAR": 0.0021800293, "MEAN_MOTION_DOT": 0.00016047, "MEAN_MOTION_DDOT": 0}, "tle": {"line1": "1 35435U 93036AKD 25358.58814993  .00016047  00000+0  21800-2 0  9991", "line2": "2 35435  74.0105  80.7425 0006651 178.2322 246.8342 14.78811810877143"}}, "geometry": {"type": "Point", "coordinates": [73.70770145490135, -10.573864891669043]}}, {"type": "Feature", "properties": {"norad_id": 35439, "name": "COSMOS 2251 DEB", "group": "cosmos-2251-debris", "lat": -38.143840650894525, "lon": 97.98154292043233, "alt_km": 792.7699390077132, "timestamp": "2025-12-26T14:28:48.099175+00:00", "meta": {"OBJECT_NAME": "COSMOS 2251 DEB", "OBJECT_ID": "1993-036AKH", "EPOCH": "2025-12-23T01:03:41.280192", "MEAN_MOTION": 13.9285581, "ECCENTRICITY": 0.02428241, "INCLINATION": 74.0195, "RA_OF_ASC_NODE": 117.083, "ARG_OF_PERICENTER": 284.1415, "MEAN_ANOMALY": 194.5054, "EPHEMERIS_TYPE": 0, "CLASSIFICATION_TYPE": "U", "NORAD_CAT_ID": 35439, "ELEMENT_SET_NO": 999, "REV_AT_EPOCH": 84104, "BSTAR": 0.0017241175, "MEAN_MOTION_DOT": 2.822e-05, "MEAN_MOTION_DDOT": 0}, "tle": {"line1": "1 35439U 93036AKH 25357.04422778  .00002822  00000+0  17241-2 0  9991", "line2": "2 35439  74.0195 117.0830 0242824 284.1415 194.5054 13.92855810841046"}}, "geometry": {"type": "Point", "coordinates": [97.98154292043233, -38.143840650894525]}}, {"type": "Feature", "properties": {"norad_id": 35440, "name": "COSMOS 2251 DEB", "group": "cosmos-2251-debris", "lat": -36.68706605742918, "lon": 13.09522782675118, "alt_km": 678.909738463014, "timestamp": "2025-12-26T14:28:48.099185+00:00", "meta": {"OBJECT_NAME": "COSMOS 2251 DEB", "OBJECT_ID": "1993-036AKJ", "EPOCH": "2025-12-22T19:34:52.667040", "MEAN_MOTION": 14.68858524, "ECCENTRICITY": 0.00697181, "INCLINATION": 74.0136, "RA_OF_ASC_NODE": 188.1002, "ARG_OF_PERICENTER": 326.674, "MEAN_ANOMALY": 33.0049, "EPHEMERIS_TYPE": 0, "CLASSIFICATION_TYPE": "U", "NORAD_CAT_ID": 35440, "ELEMENT_SET_NO": 999, "REV_AT_EPOCH": 68913, "BSTAR": 0.00037964995, "MEAN_MOTION_DOT": 2.268e-05, "MEAN_MOTION_DDOT": 0}, "tle": {"line1": "1 35440U 93036AKJ 25356.81588735  .00002268  00000+0  37965-3 0  9993", "line2": "2 35440  74.0136 188.1002 0069718 326.6740  33.0049 14.68858524689135"}}, "geometry": {"type": "Point", "coordinates": [13.09522782675118, -36.68706605742918]}}, {"type": "Feature", "properties": {"norad_id": 35441, "name": "COSMOS 2251 DEB", "group": "cosmos-2251-debris", "lat": -43.97757152921296, "lon": 107.62055020709538, "alt_km": 678.8199406210215, "timestamp": "2025-12-26T14:28:48.099195+00:00", "meta": {"OBJECT_NAME": "COSMOS 2251 DEB", "OBJECT_ID": "1993-036AKK", "EPOCH": "2025-12-24T12:12:34.900128", "MEAN_MOTION": 14.62759756, "ECCENTRICITY": 0.0036013, "INCLINATION": 74.1345, "RA_OF_ASC_NODE": 275.6818, "ARG_OF_PERICENTER": 167.8993, "MEAN_ANOMALY": 192.3049, "EPHEMERIS_TYPE": 0, "CLASSIFICATION_TYPE": "U", "NORAD_CAT_ID": 35441, "ELEMENT_SET_NO": 999, "REV_AT_EPOCH": 87602, "BSTAR": 0.0014950847, "MEAN_MOTION_DOT": 7.673e-05, "MEAN_MOTION_DDOT": 0}, "tle": {"line1": "1 35441U 93036AKK 25358.50873727  .00007673  00000+0  14951-2 0  9994", "line2": "2 35441  74.1345 275.6818 0036013 167.8993 192.3049 14.62759756876029"}}, "geometry": {"type": "Point", "coordinates": [107.62055020709538, -43.97757152921296]}}, {"type": "Feature", "properties": {"norad_id": 35442, "name": "COSMOS 2251 DEB", "group": "cosmos-2251-debris", "lat": 52.45593155795801, "lon": -130.2669578532393, "alt_km": 608.6838332156003, "timestamp": "2025-12-26T14:28:48.099205+00:00", "meta": {"OBJECT_NAME": "COSMOS 2251 DEB", "OBJECT_ID": "1993-036AKL", "EPOCH": "2025-12-25T15:17:05.194752", "MEAN_MOTION": 14.84871304, "ECCENTRICITY": 0.000409, "INCLINATION": 74.0274, "RA_OF_ASC_NODE": 73.5324, "ARG_OF_PERICENTER": 35.8112, "MEAN_ANOMALY": 324.334, "EPHEMERIS_TYPE": 0, "CLASSIFICATION_TYPE": "U", "NORAD_CAT_ID": 35442, "ELEMENT_SET_NO": 999, "REV_AT_EPOCH": 87544, "BSTAR": 0.0020511, "MEAN_MOTION_DOT": 0.00017456, "MEAN_MOTION_DDOT": 0}, "tle": {"line1": "1 35442U 93036AKL 25359.63686568  .00017456  00000+0  20511-2 0  9994", "line2": "2 35442  74.0274  73.5324 0004090  35.8112 324.3340 14.84871304875448"}}, "geometry": {"type": "Point", "coordinates": [-130.2669578532393, 52.45593155795801]}}, {"type": "Feature", "properties": {"norad_id": 35443, "name": "COSMOS 2251 DEB", "group": "cosmos-2251-debris", "lat": 61.01733582607525, "lon": -25.316268569438996, "alt_km": 518.3739473624273, "timestamp": "2025-12-26T14:28:48.099215+00:00", "meta": {"OBJECT_NAME": "COSMOS 2251 DEB", "OBJECT_ID": "1993-036AKM", "EPOCH": "2025-12-25T02:55:33.229632", "MEAN_MOTION": 14.97777524, "ECCENTRICITY": 0.00729717, "INCLINATION": 73.9857, "RA_OF_ASC_NODE": 306.46, "ARG_OF_PERICENTER": 85.2675, "MEAN_ANOMALY": 275.6839, "EPHEMERIS_TYPE": 0, "CLASSIFICATION_TYPE": "U", "NORAD_CAT_ID": 35443, "ELEMENT_SET_NO": 999, "REV_AT_EPOCH": 87063, "BSTAR": 0.0041651675, "MEAN_MOTION_DOT": 0.00051993, "MEAN_MOTION_DDOT": 0}, "tle": {"line1": "1 35443U 93036AKM 25359.12191238  .00051993  00000+0  41652-2 0  9997", "line2": "2 35443  73.9857 306.4600 0072971  85.2675 275.6839 14.97777524870635"}}, "geometry": {"type": "Point", "coordinates": [-25.316268569438996, 61.01733582607525]}}, {"type": "Feature", "properties": {"norad_id": 35445, "name": "COSMOS 2251 DEB", "group": "cosmos-2251-debris", "lat": 5.837281011211765, "lon": -84.74913635322996, "alt_km": 596.2245675935173, "timestamp": "2025-12-26T14:28:48.099226+00:00", "meta": {"OBJECT_NAME": "COSMOS 2251 DEB", "OBJECT_ID": "1993-036AKP", "EPOCH": "2025-12-24T19:40:46.420608", "MEAN_MOTION": 14.59408318, "ECCENTRICITY": 0.01439573, "INCLINATION": 74.0386, "RA_OF_ASC_NODE": 276.9734, "ARG_OF_PERICENTER": 1.0045, "MEAN_ANOMALY": 359.138, "EPHEMERIS_TYPE": 0, "CLASSIFICATION_TYPE": "U", "NORAD_CAT_ID": 35445, "ELEMENT_SET_NO": 999, "REV_AT_EPOCH": 87505, "BSTAR": 0.0021997687, "MEAN_MOTION_DOT": 0.00012035, "MEAN_MOTION_DDOT": 0}, "tle": {"line1": "1 35445U 93036AKP 25358.81998172  .00012035  00000+0  21998-2 0  9991", "line2": "2 35445  74.0386 276.9734 0143957   1.0045 359.1380 14.59408318875055"}}, "geometry": {"type": "Point", "coordinates": [-84.74913635322996, 5.837281011211765]}}]}